{
    "links": {
        "self": "http://www.neowsapp.com/rest/v1/neo/3694458?api_key=iIulBulltgU6a56xZRHN4H3l9WmuAYTsLGpBGhQ2"
    },
    "id": "3694458",
    "neo_reference_id": "3694458",
    "name": "(2014 UY56)",
    "designation": "2014 UY56",
    "nasa_jpl_url": "http://ssd.jpl.nasa.gov/sbdb.cgi?sstr=3694458",
    "absolute_magnitude_h": 26.3,
    "estimated_diameter": {
        "kilometers": {
            "estimated_diameter_min": 0.0146067964,
            "estimated_diameter_max": 0.0326617897
        },
        "meters": {
            "estimated_diameter_min": 14.6067964271,
            "estimated_diameter_max": 32.6617897446
        },
        "miles": {
            "estimated_diameter_min": 0.0090762397,
            "estimated_diameter_max": 0.020295089
        },
        "feet": {
            "estimated_diameter_min": 47.92256199,
            "estimated_diameter_max": 107.1581062656
        }
    },
    "is_potentially_hazardous_asteroid": false,
    "close_approach_data": [
        {
            "close_approach_date": "2014-10-15",
            "close_approach_date_full": "2014-Oct-15 00:24",
            "epoch_date_close_approach": 1413332640000,
            "relative_velocity": {
                "kilometers_per_second": "12.7730597389",
                "kilometers_per_hour": "45983.0150600357",
                "miles_per_hour": "28572.0573299427"
            },
            "miss_distance": {
                "astronomical": "0.0297107483",
                "lunar": "11.5574810887",
                "kilometers": "4444664.661786121",
                "miles": "2761786.5550896298"
            },
            "orbiting_body": "Earth"
        }
    ],
    "orbital_data": {
        "orbit_id": "4",
        "orbit_determination_date": "2017-04-06 08:37:56",
        "first_observation_date": "2014-10-24",
        "last_observation_date": "2014-10-29",
        "data_arc_in_days": 5,
        "observations_used": 18,
        "orbit_uncertainty": "9",
        "minimum_orbit_intersection": ".0244183",
        "jupiter_tisserand_invariant": "3.699",
        "epoch_osculation": "2456958.5",
        "eccentricity": ".5445951365321555",
        "semi_major_axis": "1.942521625891062",
        "inclination": "5.504566890147051",
        "ascending_node_longitude": "33.6903499561273",
        "orbital_period": "988.88825894999",
        "perihelion_distance": ".8846337958222542",
        "perihelion_argument": "297.2354155754809",
        "aphelion_distance": "3.000409455959869",
        "perihelion_time": "2456908.705539013016",
        "mean_anomaly": "18.12743330004568",
        "mean_motion": ".3640451757231409",
        "equinox": "J2000",
        "orbit_class": {
            "orbit_class_type": "APO",
            "orbit_class_description": "Near-Earth asteroid orbits which cross the Earth’s orbit similar to that of 1862 Apollo",
            "orbit_class_range": "a (semi-major axis) > 1.0 AU; q (perihelion) < 1.017 AU"
        }
    },
    "is_sentry_object": false
}